IRIDIUM 166             
1 43570U 18061B   25088.93933379  .00000010  00000+0 -33214-5 0  9993
2 43570  86.3947 242.3300 0001658  97.3648 262.7736 14.34215809349724
IRIDIUM 158             
1 43571U 18061C   25088.90762232 -.00000146  00000+0 -59190-4 0  9990
2 43571  86.3949 242.3530 0001923  89.8481 270.2935 14.34216113349687
IRIDIUM 165             
1 43572U 18061D   25088.93298694 -.00000053  00000+0 -26123-4 0  9997
2 43572  86.3949 242.3802 0001891 101.7020 258.4389 14.34213283349717
IRIDIUM 155             
1 43573U 18061E   25088.89493564 -.00000056  00000+0 -26891-4 0  9991
2 43573  86.3944 242.2873 0001806  87.3276 272.8126 14.34216591349688
IRIDIUM 154             
1 43574U 18061F   25088.94567770  .00000043  00000+0  83858-5 0  9990
2 43574  86.3950 242.3773 0002106  95.1866 264.9570 14.34217142349736
IRIDIUM 163             
1 43575U 18061G   25088.92664767  .00000576  00000+0  19847-3 0  9999
2 43575  86.3947 242.3146 0002189  90.3263 269.8184 14.34213572349701
IRIDIUM 156             
1 43576U 18061H   25088.90127777  .00000043  00000+0  81356-5 0  9998
2 43576  86.3946 242.3321 0001735  88.7674 271.3721 14.34215552349692
IRIDIUM 164             
1 43577U 18061J   25088.95201840  .00000019  00000+0 -16852-6 0  9992
2 43577  86.3948 242.3441 0002018 101.2936 258.8487 14.34214695349747
